[
    {
        "CCSDS_OMM_VERS": "3.0",
        "COMMENT": "GENERATED VIA SPACE-TRACK.ORG API",
        "CREATION_DATE": "2025-05-03T17:28:03",
        "ORIGINATOR": "18 SPCS",
        "OBJECT_NAME": "BEIDOU 7",
        "OBJECT_ID": "2010-068A",
        "CENTER_NAME": "EARTH",
        "REF_FRAME": "TEME",
        "TIME_SYSTEM": "UTC",
        "MEAN_ELEMENT_THEORY": "SGP4",
        "EPOCH": "2025-05-03T08:32:38.578848",
        "MEAN_MOTION": "1.00249541",
        "ECCENTRICITY": "0.00412140",
        "INCLINATION": "48.2893",
        "RA_OF_ASC_NODE": "276.8935",
        "ARG_OF_PERICENTER": "210.2007",
        "MEAN_ANOMALY": "327.4594",
        "EPHEMERIS_TYPE": "0",
        "CLASSIFICATION_TYPE": "U",
        "NORAD_CAT_ID": "37256",
        "ELEMENT_SET_NO": "999",
        "REV_AT_EPOCH": "5268",
        "BSTAR": "0.00000000000000",
        "MEAN_MOTION_DOT": "-0.00000205",
        "MEAN_MOTION_DDOT": "0.0000000000000",
        "SEMIMAJOR_AXIS": "42170.969",
        "PERIOD": "1436.416",
        "APOAPSIS": "35966.637",
        "PERIAPSIS": "35619.030",
        "OBJECT_TYPE": "PAYLOAD",
        "RCS_SIZE": "LARGE",
        "COUNTRY_CODE": "PRC",
        "LAUNCH_DATE": "2010-12-17",
        "SITE": "XSC",
        "DECAY_DATE": null,
        "FILE": "4717971",
        "GP_ID": "286759137",
        "TLE_LINE0": "0 BEIDOU 7",
        "TLE_LINE1": "1 37256U 10068A   25123.35600207 -.00000205  00000-0  00000-0 0  9992",
        "TLE_LINE2": "2 37256  48.2893 276.8935 0041214 210.2007 327.4594  1.00249541 52684"
    }
]